[{"OBJECT_NAME":"STARLINK-33770","OBJECT_ID":"2025-095S","EPOCH":"2026-03-09T07:34:44.732064","MEAN_MOTION":15.27590928,"ECCENTRICITY":0.00014853,"INCLINATION":42.9963,"RA_OF_ASC_NODE":178.0606,"ARG_OF_PERICENTER":252.4528,"MEAN_ANOMALY":107.6161,"EPHEMERIS_TYPE":0,"CLASSIFICATION_TYPE":"U","NORAD_CAT_ID":63906,"ELEMENT_SET_NO":999,"REV_AT_EPOCH":4772,"BSTAR":0.0011855791,"MEAN_MOTION_DOT":0.00032518,"MEAN_MOTION_DDOT":0},{"OBJECT_NAME":"CZ-4B DEB","OBJECT_ID":"2010-051E","EPOCH":"2026-03-08T22:01:50.125728","MEAN_MOTION":15.23766972,"ECCENTRICITY":0.00561086,"INCLINATION":97.769,"RA_OF_ASC_NODE":240.5013,"ARG_OF_PERICENTER":301.1291,"MEAN_ANOMALY":58.4449,"EPHEMERIS_TYPE":0,"CLASSIFICATION_TYPE":"U","NORAD_CAT_ID":38184,"ELEMENT_SET_NO":999,"REV_AT_EPOCH":82066,"BSTAR":0.0024566319,"MEAN_MOTION_DOT":0.00062123,"MEAN_MOTION_DDOT":0}]
